[{"OBJECT_NAME":"STARLINK-36092","OBJECT_ID":"2025-281X","EPOCH":"2025-12-17T06:00:00.999648","MEAN_MOTION":15.77580607,"ECCENTRICITY":0.00016476,"INCLINATION":43.0009,"RA_OF_ASC_NODE":94.4927,"ARG_OF_PERICENTER":274.4632,"MEAN_ANOMALY":137.3959,"EPHEMERIS_TYPE":0,"CLASSIFICATION_TYPE":"U","NORAD_CAT_ID":66869,"ELEMENT_SET_NO":999,"REV_AT_EPOCH":215,"BSTAR":-0.010475744,"MEAN_MOTION_DOT":-0.01574424,"MEAN_MOTION_DDOT":0},{"OBJECT_NAME":"STARLINK-36114","OBJECT_ID":"2025-281Y","EPOCH":"2025-12-17T06:00:00.999648","MEAN_MOTION":15.7737328,"ECCENTRICITY":0.0001764,"INCLINATION":43.0005,"RA_OF_ASC_NODE":94.4865,"ARG_OF_PERICENTER":266.0907,"MEAN_ANOMALY":148.1822,"EPHEMERIS_TYPE":0,"CLASSIFICATION_TYPE":"U","NORAD_CAT_ID":66870,"ELEMENT_SET_NO":999,"REV_AT_EPOCH":202,"BSTAR":-0.010300096,"MEAN_MOTION_DOT":-0.01538781,"MEAN_MOTION_DDOT":0},{"OBJECT_NAME":"STARLINK-36095","OBJECT_ID":"2025-281Z","EPOCH":"2025-12-17T06:00:00.999648","MEAN_MOTION":15.77159822,"ECCENTRICITY":0.00016882,"INCLINATION":43.0008,"RA_OF_ASC_NODE":94.4805,"ARG_OF_PERICENTER":270.5578,"MEAN_ANOMALY":146.1034,"EPHEMERIS_TYPE":0,"CLASSIFICATION_TYPE":"U","NORAD_CAT_ID":66871,"ELEMENT_SET_NO":999,"REV_AT_EPOCH":215,"BSTAR":-0.010155931,"MEAN_MOTION_DOT":-0.01507049,"MEAN_MOTION_DDOT":0},{"OBJECT_NAME":"STARLINK-36082","OBJECT_ID":"2025-281AA","EPOCH":"2025-12-17T06:00:00.999648","MEAN_MOTION":15.7708135,"ECCENTRICITY":0.00015709,"INCLINATION":43.0008,"RA_OF_ASC_NODE":94.475,"ARG_OF_PERICENTER":267.9299,"MEAN_ANOMALY":150.8224,"EPHEMERIS_TYPE":0,"CLASSIFICATION_TYPE":"U","NORAD_CAT_ID":66872,"ELEMENT_SET_NO":999,"REV_AT_EPOCH":202,"BSTAR":-0.010205617,"MEAN_MOTION_DOT":-0.01508743,"MEAN_MOTION_DDOT":0},{"OBJECT_NAME":"STARLINK-36128","OBJECT_ID":"2025-281AB","EPOCH":"2025-12-17T06:00:00.999648","MEAN_MOTION":15.76708895,"ECCENTRICITY":0.00016283,"INCLINATION":43.0004,"RA_OF_ASC_NODE":94.4583,"ARG_OF_PERICENTER":269.5363,"MEAN_ANOMALY":155.7526,"EPHEMERIS_TYPE":0,"CLASSIFICATION_TYPE":"U","NORAD_CAT_ID":66873,"ELEMENT_SET_NO":999,"REV_AT_EPOCH":215,"BSTAR":-0.011011169,"MEAN_MOTION_DOT":-0.01620154,"MEAN_MOTION_DDOT":0},{"OBJECT_NAME":"STARLINK-36129","OBJECT_ID":"2025-281AC","EPOCH":"2025-12-17T06:00:00.999648","MEAN_MOTION":15.76923405,"ECCENTRICITY":0.00018937,"INCLINATION":43.0005,"RA_OF_ASC_NODE":94.4694,"ARG_OF_PERICENTER":268.7887,"MEAN_ANOMALY":152.245,"EPHEMERIS_TYPE":0,"CLASSIFICATION_TYPE":"U","NORAD_CAT_ID":66874,"ELEMENT_SET_NO":999,"REV_AT_EPOCH":215,"BSTAR":-0.010144596,"MEAN_MOTION_DOT":-0.01491695,"MEAN_MOTION_DDOT":0},{"OBJECT_NAME":"STARLINK-36053","OBJECT_ID":"2025-281AD","EPOCH":"2025-12-17T06:00:00.999648","MEAN_MOTION":15.76664456,"ECCENTRICITY":0.00012141,"INCLINATION":43.0007,"RA_OF_ASC_NODE":94.4526,"ARG_OF_PERICENTER":279.8148,"MEAN_ANOMALY":147.5975,"EPHEMERIS_TYPE":0,"CLASSIFICATION_TYPE":"U","NORAD_CAT_ID":66875,"ELEMENT_SET_NO":999,"REV_AT_EPOCH":215,"BSTAR":-0.012130852,"MEAN_MOTION_DOT":-0.01761578,"MEAN_MOTION_DDOT":0},{"OBJECT_NAME":"STARLINK-35702","OBJECT_ID":"2025-281AE","EPOCH":"2025-12-17T06:00:00.999648","MEAN_MOTION":15.76760828,"ECCENTRICITY":0.00018752,"INCLINATION":43.0007,"RA_OF_ASC_NODE":94.4637,"ARG_OF_PERICENTER":267.8253,"MEAN_ANOMALY":155.4645,"EPHEMERIS_TYPE":0,"CLASSIFICATION_TYPE":"U","NORAD_CAT_ID":66876,"ELEMENT_SET_NO":999,"REV_AT_EPOCH":215,"BSTAR":-0.011027549,"MEAN_MOTION_DOT":-0.0162584,"MEAN_MOTION_DDOT":0},{"OBJECT_NAME":"STARLINK-35866","OBJECT_ID":"2025-283A","EPOCH":"2025-12-17T06:00:00.999648","MEAN_MOTION":15.82974039,"ECCENTRICITY":0.00010395,"INCLINATION":53.156,"RA_OF_ASC_NODE":51.1343,"ARG_OF_PERICENTER":73.8135,"MEAN_ANOMALY":9.6166,"EPHEMERIS_TYPE":0,"CLASSIFICATION_TYPE":"U","NORAD_CAT_ID":66878,"ELEMENT_SET_NO":999,"REV_AT_EPOCH":315,"BSTAR":-0.0064388154,"MEAN_MOTION_DOT":-0.01242268,"MEAN_MOTION_DDOT":0},{"OBJECT_NAME":"STARLINK-35749","OBJECT_ID":"2025-283B","EPOCH":"2025-12-17T06:00:00.999648","MEAN_MOTION":15.82943741,"ECCENTRICITY":9.434e-5,"INCLINATION":53.1557,"RA_OF_ASC_NODE":51.1234,"ARG_OF_PERICENTER":78.4037,"MEAN_ANOMALY":10.1464,"EPHEMERIS_TYPE":0,"CLASSIFICATION_TYPE":"U","NORAD_CAT_ID":66879,"ELEMENT_SET_NO":999,"REV_AT_EPOCH":315,"BSTAR":-0.0065228734,"MEAN_MOTION_DOT":-0.01254946,"MEAN_MOTION_DDOT":0},{"OBJECT_NAME":"STARLINK-35844","OBJECT_ID":"2025-283C","EPOCH":"2025-12-17T06:00:00.999648","MEAN_MOTION":15.82966467,"ECCENTRICITY":9.831e-5,"INCLINATION":53.1561,"RA_OF_ASC_NODE":51.1295,"ARG_OF_PERICENTER":80.676,"MEAN_ANOMALY":5.2075,"EPHEMERIS_TYPE":0,"CLASSIFICATION_TYPE":"U","NORAD_CAT_ID":66880,"ELEMENT_SET_NO":999,"REV_AT_EPOCH":315,"BSTAR":-0.0064825807,"MEAN_MOTION_DOT":-0.01249306,"MEAN_MOTION_DDOT":0},{"OBJECT_NAME":"STARLINK-35860","OBJECT_ID":"2025-283D","EPOCH":"2025-12-17T06:00:00.999648","MEAN_MOTION":15.82946081,"ECCENTRICITY":0.00011009,"INCLINATION":53.1557,"RA_OF_ASC_NODE":51.1185,"ARG_OF_PERICENTER":70.9657,"MEAN_ANOMALY":19.7703,"EPHEMERIS_TYPE":0,"CLASSIFICATION_TYPE":"U","NORAD_CAT_ID":66881,"ELEMENT_SET_NO":999,"REV_AT_EPOCH":315,"BSTAR":-0.0065662636,"MEAN_MOTION_DOT":-0.01262534,"MEAN_MOTION_DDOT":0},{"OBJECT_NAME":"STARLINK-35912","OBJECT_ID":"2025-283E","EPOCH":"2025-12-17T06:00:00.999648","MEAN_MOTION":15.82945791,"ECCENTRICITY":0.00011592,"INCLINATION":53.156,"RA_OF_ASC_NODE":51.1142,"ARG_OF_PERICENTER":71.5287,"MEAN_ANOMALY":21.6256,"EPHEMERIS_TYPE":0,"CLASSIFICATION_TYPE":"U","NORAD_CAT_ID":66882,"ELEMENT_SET_NO":999,"REV_AT_EPOCH":315,"BSTAR":-0.0066913472,"MEAN_MOTION_DOT":-0.01283742,"MEAN_MOTION_DDOT":0},{"OBJECT_NAME":"STARLINK-35947","OBJECT_ID":"2025-283F","EPOCH":"2025-12-17T06:00:00.999648","MEAN_MOTION":15.82942249,"ECCENTRICITY":0.00010415,"INCLINATION":53.1559,"RA_OF_ASC_NODE":51.109,"ARG_OF_PERICENTER":79.2993,"MEAN_ANOMALY":16.4063,"EPHEMERIS_TYPE":0,"CLASSIFICATION_TYPE":"U","NORAD_CAT_ID":66883,"ELEMENT_SET_NO":999,"REV_AT_EPOCH":320,"BSTAR":-0.0068911723,"MEAN_MOTION_DOT":-0.01317111,"MEAN_MOTION_DDOT":0},{"OBJECT_NAME":"STARLINK-36057","OBJECT_ID":"2025-283G","EPOCH":"2025-12-17T06:00:00.999648","MEAN_MOTION":15.8291993,"ECCENTRICITY":0.00010471,"INCLINATION":53.1557,"RA_OF_ASC_NODE":51.098,"ARG_OF_PERICENTER":71.2062,"MEAN_ANOMALY":29.5348,"EPHEMERIS_TYPE":0,"CLASSIFICATION_TYPE":"U","NORAD_CAT_ID":66884,"ELEMENT_SET_NO":999,"REV_AT_EPOCH":315,"BSTAR":-0.0072408431,"MEAN_MOTION_DOT":-0.0137405,"MEAN_MOTION_DDOT":0},{"OBJECT_NAME":"STARLINK-35954","OBJECT_ID":"2025-283H","EPOCH":"2025-12-17T06:00:00.999648","MEAN_MOTION":15.82938124,"ECCENTRICITY":0.00010139,"INCLINATION":53.1556,"RA_OF_ASC_NODE":51.1032,"ARG_OF_PERICENTER":74.0452,"MEAN_ANOMALY":24.1804,"EPHEMERIS_TYPE":0,"CLASSIFICATION_TYPE":"U","NORAD_CAT_ID":66885,"ELEMENT_SET_NO":999,"REV_AT_EPOCH":315,"BSTAR":-0.0071072965,"MEAN_MOTION_DOT":-0.01352935,"MEAN_MOTION_DDOT":0}]
